{"fetched_at":"2026-07-23T07:05:20.499Z","source":"https://celestrak.org/NORAD/elements/gp.php?GROUP=planet&FORMAT=JSON","constellation":"pelican","records":[{"OBJECT_NAME":"PELICAN-1","OBJECT_ID":"2023-174AS","EPOCH":"2026-07-21T17:45:48.056256","CLASSIFICATION_TYPE":"U","MEAN_MOTION":15.7200092,"ECCENTRICITY":0.00069063,"INCLINATION":97.3957,"RA_OF_ASC_NODE":305.2194,"ARG_OF_PERICENTER":166.0573,"MEAN_ANOMALY":194.0882,"EPHEMERIS_TYPE":0,"NORAD_CAT_ID":58296,"ELEMENT_SET_NO":999,"REV_AT_EPOCH":15159,"BSTAR":0.000068627977,"MEAN_MOTION_DOT":0.00008828,"MEAN_MOTION_DDOT":0},{"OBJECT_NAME":"PELICAN-2","OBJECT_ID":"2025-009Y","EPOCH":"2026-07-22T05:57:43.683264","CLASSIFICATION_TYPE":"U","MEAN_MOTION":15.40685259,"ECCENTRICITY":0.00012743,"INCLINATION":97.2019,"RA_OF_ASC_NODE":293.6933,"ARG_OF_PERICENTER":36.2458,"MEAN_ANOMALY":323.8875,"EPHEMERIS_TYPE":0,"NORAD_CAT_ID":62631,"ELEMENT_SET_NO":999,"REV_AT_EPOCH":8495,"BSTAR":0.000002129241,"MEAN_MOTION_DOT":7e-8,"MEAN_MOTION_DDOT":0},{"OBJECT_NAME":"PELICAN-3","OBJECT_ID":"2025-188A","EPOCH":"2026-07-22T04:15:23.681952","CLASSIFICATION_TYPE":"U","MEAN_MOTION":15.41357187,"ECCENTRICITY":0.00021701,"INCLINATION":97.1975,"RA_OF_ASC_NODE":278.8136,"ARG_OF_PERICENTER":112.7428,"MEAN_ANOMALY":247.4049,"EPHEMERIS_TYPE":0,"NORAD_CAT_ID":65315,"ELEMENT_SET_NO":999,"REV_AT_EPOCH":5070,"BSTAR":0.00021399759,"MEAN_MOTION_DOT":0.00008847,"MEAN_MOTION_DDOT":0},{"OBJECT_NAME":"PELICAN-4","OBJECT_ID":"2025-188B","EPOCH":"2026-07-22T11:03:30.455424","CLASSIFICATION_TYPE":"U","MEAN_MOTION":15.40360963,"ECCENTRICITY":0.0001882,"INCLINATION":97.1997,"RA_OF_ASC_NODE":279.2366,"ARG_OF_PERICENTER":77.9499,"MEAN_ANOMALY":282.1959,"EPHEMERIS_TYPE":0,"NORAD_CAT_ID":65316,"ELEMENT_SET_NO":999,"REV_AT_EPOCH":5074,"BSTAR":0.00021193053,"MEAN_MOTION_DOT":0.00008475,"MEAN_MOTION_DDOT":0},{"OBJECT_NAME":"PELICAN-5","OBJECT_ID":"2025-276B","EPOCH":"2026-07-21T15:17:48.392160","CLASSIFICATION_TYPE":"U","MEAN_MOTION":15.33133291,"ECCENTRICITY":0.00026442,"INCLINATION":97.4117,"RA_OF_ASC_NODE":277.6194,"ARG_OF_PERICENTER":57.652,"MEAN_ANOMALY":302.4977,"EPHEMERIS_TYPE":0,"NORAD_CAT_ID":66667,"ELEMENT_SET_NO":999,"REV_AT_EPOCH":3579,"BSTAR":0.00056167504,"MEAN_MOTION_DOT":0.00017924,"MEAN_MOTION_DDOT":0},{"OBJECT_NAME":"PELICAN-6","OBJECT_ID":"2025-276AP","EPOCH":"2026-07-21T15:25:26.259456","CLASSIFICATION_TYPE":"U","MEAN_MOTION":15.31697522,"ECCENTRICITY":0.00028711,"INCLINATION":97.3687,"RA_OF_ASC_NODE":277.5838,"ARG_OF_PERICENTER":56.7613,"MEAN_ANOMALY":303.3904,"EPHEMERIS_TYPE":0,"NORAD_CAT_ID":66703,"ELEMENT_SET_NO":999,"REV_AT_EPOCH":3580,"BSTAR":0.00014219801,"MEAN_MOTION_DOT":0.00004274,"MEAN_MOTION_DDOT":0},{"OBJECT_NAME":"PELICAN-7","OBJECT_ID":"2026-100AP","EPOCH":"2026-07-22T17:54:44.005824","CLASSIFICATION_TYPE":"U","MEAN_MOTION":15.23861286,"ECCENTRICITY":0.00032478,"INCLINATION":97.3806,"RA_OF_ASC_NODE":101.075,"ARG_OF_PERICENTER":76.3353,"MEAN_ANOMALY":283.8246,"EPHEMERIS_TYPE":0,"NORAD_CAT_ID":69017,"ELEMENT_SET_NO":999,"REV_AT_EPOCH":1222,"BSTAR":0.00014832697,"MEAN_MOTION_DOT":0.00003507,"MEAN_MOTION_DDOT":0},{"OBJECT_NAME":"PELICAN-9","OBJECT_ID":"2026-100AR","EPOCH":"2026-07-21T11:30:23.380992","CLASSIFICATION_TYPE":"U","MEAN_MOTION":15.2313652,"ECCENTRICITY":0.00033858,"INCLINATION":97.3465,"RA_OF_ASC_NODE":99.6391,"ARG_OF_PERICENTER":107.8901,"MEAN_ANOMALY":252.2705,"EPHEMERIS_TYPE":0,"NORAD_CAT_ID":69019,"ELEMENT_SET_NO":999,"REV_AT_EPOCH":1202,"BSTAR":0.0000689606,"MEAN_MOTION_DOT":0.00001559,"MEAN_MOTION_DDOT":0}]}
