{"epoch":1784799577,"count":18318,"objects":[{"id":"58296","name":"PELICAN-1 3001","type":"PAYLOAD","l1":"1 58296U 23174AS  26202.74013954  .00008828  00000-0  68628-4 0  9992","l2":"2 58296  97.3957 305.2194 0006906 166.0573 194.0882 15.72000920151594"},{"id":"62631","name":"PELICAN-2 3009","type":"PAYLOAD","l1":"1 62631U 25009Y   26203.24842226  .00000007  00000-0  21292-5 0  9995","l2":"2 62631  97.2019 293.6933 0001274  36.2458 323.8875 15.40685259 84952"},{"id":"65315","name":"PELICAN-3 300A","type":"PAYLOAD","l1":"1 65315U 25188A   26203.17735743  .00008847  00000-0  21400-3 0  9991","l2":"2 65315  97.1975 278.8136 0002170 112.7428 247.4049 15.41357187 50704"},{"id":"65316","name":"PELICAN-4 300B","type":"PAYLOAD","l1":"1 65316U 25188B   26203.46076916  .00008475  00000-0  21193-3 0  9990","l2":"2 65316  97.1997 279.2366 0001882  77.9499 282.1959 15.40360963 50743"},{"id":"66667","name":"PELICAN-5 300C","type":"PAYLOAD","l1":"1 66667U 25276B   26202.63736565  .00017924  00000-0  56168-3 0  9998","l2":"2 66667  97.4117 277.6194 0002644  57.6520 302.4977 15.33133291 35796"},{"id":"66703","name":"PELICAN-6 300D","type":"PAYLOAD","l1":"1 66703U 25276AP  26202.64266504  .00004274  00000-0  14220-3 0  9998","l2":"2 66703  97.3687 277.5838 0002871  56.7613 303.3904 15.31697522 35809"},{"id":"69017","name":"PELICAN-7 300E","type":"PAYLOAD","l1":"1 69017U 26100AP  26203.74634266  .00003507  00000-0  14833-3 0  9990","l2":"2 69017  97.3806 101.0750 0003248  76.3353 283.8246 15.23861286 12228"},{"id":"69019","name":"PELICAN-9 3010","type":"PAYLOAD","l1":"1 69019U 26100AR  26202.47943728  .00001559  00000-0  68961-4 0  9994","l2":"2 69019  97.3465  99.6391 0003386 107.8901 252.2705 15.23136520 12020"}]}